[{"OBJECT_NAME":"STARLINK-5750","OBJECT_ID":"2023-020AB","EPOCH":"2026-03-09T22:00:01.999584","MEAN_MOTION":15.1157446,"ECCENTRICITY":0.00010799,"INCLINATION":42.9996,"RA_OF_ASC_NODE":2.8154,"ARG_OF_PERICENTER":239.6654,"MEAN_ANOMALY":3.4658,"EPHEMERIS_TYPE":0,"CLASSIFICATION_TYPE":"U","NORAD_CAT_ID":55594,"ELEMENT_SET_NO":999,"REV_AT_EPOCH":577,"BSTAR":0.070030439,"MEAN_MOTION_DOT":0.01312742,"MEAN_MOTION_DDOT":0},{"OBJECT_NAME":"SHIJIAN-30B (SJ-30B)","OBJECT_ID":"2025-266B","EPOCH":"2026-03-09T22:16:30.653184","MEAN_MOTION":15.15274975,"ECCENTRICITY":0.0009234,"INCLINATION":51.7956,"RA_OF_ASC_NODE":284.3547,"ARG_OF_PERICENTER":294.0763,"MEAN_ANOMALY":65.9247,"EPHEMERIS_TYPE":0,"CLASSIFICATION_TYPE":"U","NORAD_CAT_ID":66546,"ELEMENT_SET_NO":999,"REV_AT_EPOCH":1680,"BSTAR":0.00057385906,"MEAN_MOTION_DOT":0.00010651,"MEAN_MOTION_DDOT":0}]
